PLEIADES 1A             
1 38012U 11076F   26193.52052166  .00000133  00000+0  38364-4 0  9991
2 38012  98.1974 268.2821 0001732  80.9300  44.1548 14.58545949775689
PLEIADES 1B             
1 39019U 12068A   26193.46205332  .00000310  00000+0  76497-4 0  9995
2 39019  98.1945 268.1648 0001627  78.9887 281.1495 14.58534083724530
