{"fetched_at":"2026-07-12T17:32:58.779Z","source":"https://celestrak.org/NORAD/elements/gp.php?NAME=PLEIADES&FORMAT=JSON","constellation":"pleiades","records":[{"OBJECT_NAME":"PLEIADES 1A","OBJECT_ID":"2011-076F","EPOCH":"2026-07-12T12:29:33.071424","CLASSIFICATION_TYPE":"U","MEAN_MOTION":14.58545949,"ECCENTRICITY":0.0001732,"INCLINATION":98.1974,"RA_OF_ASC_NODE":268.2821,"ARG_OF_PERICENTER":80.93,"MEAN_ANOMALY":44.1548,"EPHEMERIS_TYPE":0,"NORAD_CAT_ID":38012,"ELEMENT_SET_NO":999,"REV_AT_EPOCH":77568,"BSTAR":0.000038364,"MEAN_MOTION_DOT":0.00000133,"MEAN_MOTION_DDOT":0},{"OBJECT_NAME":"PLEIADES 1B","OBJECT_ID":"2012-068A","EPOCH":"2026-07-12T11:05:21.406848","CLASSIFICATION_TYPE":"U","MEAN_MOTION":14.58534083,"ECCENTRICITY":0.0001627,"INCLINATION":98.1945,"RA_OF_ASC_NODE":268.1648,"ARG_OF_PERICENTER":78.9887,"MEAN_ANOMALY":281.1495,"EPHEMERIS_TYPE":0,"NORAD_CAT_ID":39019,"ELEMENT_SET_NO":999,"REV_AT_EPOCH":72453,"BSTAR":0.000076497,"MEAN_MOTION_DOT":0.0000031,"MEAN_MOTION_DDOT":0}]}
